[{"OBJECT_NAME":"BB 1","OBJECT_ID":"2023-050K","EPOCH":"2026-03-09T20:29:58.628256","MEAN_MOTION":13.82403418,"ECCENTRICITY":0.00164346,"INCLINATION":81.0052,"RA_OF_ASC_NODE":175.5172,"ARG_OF_PERICENTER":205.3476,"MEAN_ANOMALY":154.6874,"EPHEMERIS_TYPE":0,"CLASSIFICATION_TYPE":"U","NORAD_CAT_ID":56171,"ELEMENT_SET_NO":999,"REV_AT_EPOCH":14781,"BSTAR":0.00021831819,"MEAN_MOTION_DOT":2.47e-6,"MEAN_MOTION_DDOT":0},{"OBJECT_NAME":"PEGASUS DEB","OBJECT_ID":"1994-029FZ","EPOCH":"2026-03-09T12:36:59.566752","MEAN_MOTION":14.41175502,"ECCENTRICITY":0.02757153,"INCLINATION":81.7972,"RA_OF_ASC_NODE":78.8441,"ARG_OF_PERICENTER":112.9537,"MEAN_ANOMALY":15.5013,"EPHEMERIS_TYPE":0,"CLASSIFICATION_TYPE":"U","NORAD_CAT_ID":24126,"ELEMENT_SET_NO":999,"REV_AT_EPOCH":53960,"BSTAR":0.0010536774,"MEAN_MOTION_DOT":5.383e-5,"MEAN_MOTION_DDOT":0}]
